NORAD_CAT_ID,OBJECT_NAME,OBJECT_TYPE,EPOCH,MEAN_MOTION,ECCENTRICITY,INCLINATION,RA_OF_ASC_NODE,ARG_OF_PERICENTER,MEAN_ANOMALY,BSTAR,MEAN_MOTION_DOT,MEAN_MOTION_DDOT,TLE_LINE0,TLE_LINE1,TLE_LINE2,SEMIMAJOR_AXIS,PERIOD,APOGEE,PERIGEE,DECAYED
52303.0,STARLINK-3742,PAYLOAD,2022-07-15 14:00:01,15.13447124,0.0001373,53.2175,323.6941,62.3961,291.4987,-0.042833,-0.00721258,0.0,0 STARLINK-3742,1 52303U 22041AU  22196.58334491 -.00721258  00000-0 -42833-1 0  9997,2 52303  53.2175 323.6941 0001373  62.3961 291.4987 15.13447124  1303,6903.834,95.147,526.6469999999998,524.751,0.0
52303.0,STARLINK-3742,PAYLOAD,2022-07-15 22:00:00,15.12939183,0.0001247,53.2172,322.1895,76.0886,294.6261,-0.043682,-0.00724827,0.0,0 STARLINK-3742,1 52303U 22041AU  22196.91667824 -.00724827  00000-0 -43682-1 0  9991,2 52303  53.2172 322.1895 0001247  76.0886 294.6261 15.12939183  1300,6905.379,95.179,528.105,526.383,0.0
52303.0,STARLINK-3742,PAYLOAD,2022-07-16 14:00:01,15.11917855,0.000145,53.2176,319.1841,57.6922,344.8254,-0.044791,-0.00722428,0.0,0 STARLINK-3742,1 52303U 22041AU  22197.58334491 -.00722428  00000-0 -44791-1 0  9993,2 52303  53.2176 319.1841 0001450  57.6922 344.8254 15.11917855  1304,6908.489000000001,95.243,531.355,529.352,0.0
52303.0,STARLINK-3742,PAYLOAD,2022-07-16 22:00:00,15.11408274,0.0001298,53.2173,317.6829,70.9291,346.5708,-0.045479,-0.00723088,0.0,0 STARLINK-3742,1 52303U 22041AU  22197.91667824 -.00723088  00000-0 -45479-1 0  9996,2 52303  53.2173 317.6829 0001298  70.9291 346.5708 15.11408274  1300,6910.041,95.275,532.803,531.009,0.0
52303.0,STARLINK-3742,PAYLOAD,2022-07-17 06:00:00,15.10895778,0.0001296,53.2174,316.1816,76.548,355.3231,-0.0459,-0.00719681,0.0,0 STARLINK-3742,1 52303U 22041AU  22198.25001157 -.00719681  00000-0 -45900-1 0  9998,2 52303  53.2174 316.1816 0001296  76.5480 355.3231 15.10895778 14728,6911.604,95.308,534.365,532.573,0.0
52303.0,STARLINK-3742,PAYLOAD,2022-07-17 14:00:01,15.10388062,0.0001516,53.2175,314.6848,57.8127,27.8127,-0.046769,-0.00722826,0.0,0 STARLINK-3742,1 52303U 22041AU  22198.58334491 -.00722826  00000-0 -46769-1 0  9993,2 52303  53.2175 314.6848 0001516  57.8127  27.8127 15.10388062  1300,6913.153,95.34,536.066,533.97,0.0
52303.0,STARLINK-3742,PAYLOAD,2022-07-17 22:00:00,15.09877902,0.0001484,53.2173,313.1869,57.9364,40.8333,-0.047413,-0.0072251,0.0,0 STARLINK-3742,1 52303U 22041AU  22198.91667824 -.00722510  00000-0 -47413-1 0  9996,2 52303  53.2173 313.1869 0001484  57.9364  40.8333 15.09877902  1301,6914.71,95.372,537.601,535.549,0.0
52303.0,STARLINK-3742,PAYLOAD,2022-07-18 14:00:01,15.0887387,0.0001448,53.2174,310.1939,63.5555,59.7077,-0.0038716,-0.00061436,0.0,0 STARLINK-3742,1 52303U 22041AU  22199.58334491 -.00061436  00000-0 -38716-2 0  9991,2 52303  53.2174 310.1939 0001448  63.5555  59.7077 15.08873870 14927,6917.776999999999,95.435,540.644,538.64,0.0
52303.0,STARLINK-3742,PAYLOAD,2022-07-18 22:00:00,15.08837127,0.0001491,53.2173,308.697,59.8675,75.0051,-2.3755e-05,-6.66e-06,0.0,0 STARLINK-3742,1 52303U 22041AU  22199.91667824 -.00000666  00000-0 -23755-4 0  9994,2 52303  53.2173 308.6970 0001491  59.8675  75.0051 15.08837127  1308,6917.889,95.438,540.786,538.7230000000002,0.0
52303.0,STARLINK-3742,PAYLOAD,2022-07-19 06:00:00,15.08836807,0.0001353,53.2174,307.1992,82.04799999999999,64.4178,-2.556800000000001e-05,-6.95e-06,0.0,0 STARLINK-3742,1 52303U 22041AU  22200.25001157 -.00000695  00000-0 -25568-4 0  9991,2 52303  53.2174 307.1992 0001353  82.0480  64.4178 15.08836807 15026,6917.89,95.438,540.691,538.819,0.0
52303.0,STARLINK-3742,PAYLOAD,2022-07-19 14:00:01,15.08904295,0.0001332,53.2166,305.6955,56.8235,101.2825,-0.0083797999999999,-0.00131458,0.0,0 STARLINK-3742,1 52303U 22041AU  22200.58334491 -.00131458  00000-0 -83798-2 0  9996,2 52303  53.2166 305.6955 0001332  56.8235 101.2825 15.08904295 15074,6917.684,95.433,540.47,538.627,0.0
52303.0,STARLINK-3742,PAYLOAD,2022-07-19 22:00:00,15.08840703,0.0001375999999999,53.2168,304.203,54.3244,115.4157,-0.0071578999999999,-0.00112434,0.0,0 STARLINK-3742,1 52303U 22041AU  22200.91667824 -.00112434  00000-0 -71579-2 0  9999,2 52303  53.2168 304.2030 0001376  54.3244 115.4157 15.08840703 15120,6917.878000000002,95.438,540.695,538.7909999999998,0.0
52303.0,STARLINK-3742,PAYLOAD,2022-07-20 06:00:00,15.08828907,0.0001215,53.2174,302.7096,56.5162,124.7444,0.0008705,0.00013589,0.0,0 STARLINK-3742,1 52303U 22041AU  22201.25001157  .00013589  00000-0  87050-3 0  9999,2 52303  53.2174 302.7096 0001215  56.5162 124.7444 15.08828907 15176,6917.9140000000025,95.438,540.62,538.939,0.0
52303.0,STARLINK-3742,PAYLOAD,2022-07-20 14:00:01,15.08835186,0.0001399,53.2168,301.2061,53.6669,139.2295,-0.00085756,-0.00013908,0.0,0 STARLINK-3742,1 52303U 22041AU  22201.58334491 -.00013908  00000-0 -85756-3 0  9993,2 52303  53.2168 301.2061 0001399  53.6669 139.2295 15.08835186  1300,6917.895,95.438,540.7280000000002,538.7919999999998,0.0
52303.0,STARLINK-3742,PAYLOAD,2022-07-20 22:00:01,15.08831386,0.0001379,53.2169,299.7089,53.9838,150.5542,-0.0017097999999999,-0.0002739,0.0,0 STARLINK-3742,1 52303U 22041AU  22201.91668981 -.00027390  00000-0 -17098-2 0  9997,2 52303  53.2169 299.7089 0001379  53.9838 150.5542 15.08831386  1300,6917.906999999997,95.438,540.726,538.818,0.0
52303.0,STARLINK-3742,PAYLOAD,2022-07-21 06:00:00,15.08817537,0.0001371,53.2173,298.2116,63.6801,152.3609,0.0010871,0.00017045,0.0,0 STARLINK-3742,1 52303U 22041AU  22202.25001157  .00017045  00000-0  10871-2 0  9997,2 52303  53.2173 298.2116 0001371  63.6801 152.3609 15.08817537 15334,6917.949000000001,95.439,540.763,538.866,0.0
52303.0,STARLINK-3742,PAYLOAD,2022-07-21 14:00:01,15.08807208,0.0001585,53.2173,296.7169,56.0636,171.6194,-0.00095827,-0.00015493,0.0,0 STARLINK-3742,1 52303U 22041AU  22202.58335648 -.00015493  00000-0 -95827-3 0  9990,2 52303  53.2173 296.7169 0001585  56.0636 171.6194 15.08807208  1303,6917.981,95.44,540.942,538.749,0.0
52303.0,STARLINK-3742,PAYLOAD,2022-07-21 22:00:00,15.08820942,0.0001515,53.2174,295.2198,57.4454,181.7203,-0.0016876999999999,-0.00027033,0.0,0 STARLINK-3742,1 52303U 22041AU  22202.91667824 -.00027033  00000-0 -16877-2 0  9991,2 52303  53.2174 295.2198 0001515  57.4454 181.7203 15.08820942  1309,6917.939,95.439,540.852,538.756,0.0
52303.0,STARLINK-3742,PAYLOAD,2022-07-22 06:00:00,15.08799389,0.0001440999999999,53.2177,293.7226,63.7895,186.9367,0.0036588999999999,0.00058361,0.0,0 STARLINK-3742,1 52303U 22041AU  22203.25001157  .00058361  00000-0  36589-2 0  9998,2 52303  53.2177 293.7226 0001441  63.7895 186.9367 15.08799389  1302,6918.005,95.44,540.866,538.873,0.0
52303.0,STARLINK-3742,PAYLOAD,2022-07-22 12:00:00,15.0883836,0.00015,53.2176,292.6018,56.0523,113.3513,0.0011505999999999,0.0001807,0.0,0 STARLINK-3742,1 52303U 22041AU  22203.50001157  .00018070  00000-0  11506-2 0  9991,2 52303  53.2176 292.6018 0001500  56.0523 113.3513 15.08838360 15515,6917.885,95.438,540.788,538.7130000000002,0.0
52303.0,STARLINK-3742,PAYLOAD,2022-07-22 22:00:00,15.08887118,0.0001429,53.2176,290.7307,54.9393,218.9724,-0.0025079,-0.00040031,0.0,0 STARLINK-3742,1 52303U 22041AU  22203.91667824 -.00040031  00000-0 -25079-2 0  9999,2 52303  53.2176 290.7307 0001429  54.9393 218.9724 15.08887118  1300,6917.736,95.435,540.59,538.613,0.0
52303.0,STARLINK-3742,PAYLOAD,2022-07-23 14:00:01,15.08831365,0.0001519,53.2177,287.7389,54.1001,243.1179,-0.0005615,-9.211e-05,0.0,0 STARLINK-3742,1 52303U 22041AU  22204.58335648 -.00009211  00000-0 -56150-3 0  9999,2 52303  53.2177 287.7389 0001519  54.1001 243.1179 15.08831365 15688,6917.906999999997,95.438,540.823,538.721,0.0
52303.0,STARLINK-3742,PAYLOAD,2022-07-23 22:00:00,15.08847916,0.0001369,53.2175,286.2415,55.0531,253.688,-0.0014717,-0.00023639,0.0,0 STARLINK-3742,1 52303U 22041AU  22204.91667824 -.00023639  00000-0 -14717-2 0  9992,2 52303  53.2175 286.2415 0001369  55.0531 253.6880 15.08847916  1309,6917.856,95.437,540.668,538.774,0.0
52303.0,STARLINK-3742,PAYLOAD,2022-07-24 06:00:00,15.08841613,0.0001308,53.2176,284.7447,62.5151,257.8115,0.00083121,0.00012966,0.0,0 STARLINK-3742,1 52303U 22041AU  22205.25001157  .00012966  00000-0  83121-3 0  9996,2 52303  53.2176 284.7447 0001308  62.5151 257.8115 15.08841613 15784,6917.875,95.437,540.645,538.836,0.0
52303.0,STARLINK-3742,PAYLOAD,2022-07-24 14:00:01,15.08835842,0.0001486999999999,53.2174,283.2502,54.2279,277.6991,0.00036506,5.526e-05,0.0,0 STARLINK-3742,1 52303U 22041AU  22205.58334491  .00005526  00000-0  36506-3 0  9991,2 52303  53.2174 283.2502 0001487  54.2279 277.6991 15.08835842  1307,6917.893,95.438,540.7869999999998,538.729,0.0
52303.0,STARLINK-3742,PAYLOAD,2022-07-24 22:00:00,15.08842859,0.0001431999999999,53.217,281.7526,58.1897,285.3338,-0.002604,-0.00041495,0.0,0 STARLINK-3742,1 52303U 22041AU  22205.91667824 -.00041495  00000-0 -26040-2 0  9995,2 52303  53.2170 281.7526 0001432  58.1897 285.3338 15.08842859  1308,6917.871999999999,95.437,540.727,538.746,0.0
52303.0,STARLINK-3742,PAYLOAD,2022-07-25 14:00:01,15.08811687,0.0001564,53.2169,278.7616,56.0888,310.5942,0.0017495,0.00027643,0.0,0 STARLINK-3742,1 52303U 22041AU  22206.58334491  .00027643  00000-0  17495-2 0  9991,2 52303  53.2169 278.7616 0001564  56.0888 310.5942 15.08811687  1302,6917.967,95.439,540.914,538.75,0.0
52303.0,STARLINK-3742,PAYLOAD,2022-07-25 22:00:00,15.088371100000002,0.0001459,53.2165,277.2639,59.054,319.2021,-0.00112,-0.00018067,0.0,0 STARLINK-3742,1 52303U 22041AU  22206.91667824 -.00018067  00000-0 -11200-2 0  9997,2 52303  53.2165 277.2639 0001459  59.0540 319.2021 15.08837110  1301,6917.889,95.438,540.764,538.745,0.0
52303.0,STARLINK-3742,PAYLOAD,2022-07-26 06:00:00,15.08842101,0.0001457,53.2166,275.7675,63.4135,326.4196,-0.00034927,-5.843e-05,0.0,0 STARLINK-3742,1 52303U 22041AU  22207.25001157 -.00005843  00000-0 -34927-3 0  9996,2 52303  53.2166 275.7675 0001457  63.4135 326.4196 15.08842101 16082,6917.874,95.437,540.747,538.731,0.0
